STARLINK-31474          
1 59304U 24056J   26068.43052589  .00002262  00000+0  91711-4 0  9990
2 59304  43.0036 225.3421 0001728 280.3945  79.6712 15.27574581111197
2025-155V               
1 64895U 25155V   26068.85787115  .00013705  00000+0  51002-3 0  9990
2 64895  97.4485  37.2490 0008035 152.8264 207.3397 15.27583301 65579
